STARLINK-36472          
1 67346U 26003N   26036.45554333  .00088707  00000+0  14983-2 0  9992
2 67346  43.0004  50.0153 0002193 254.1486 105.9132 15.50624240  3876
STARLINK-36420          
1 67347U 26003P   26037.35668020  .00088887  00000+0  15039-2 0  9994
2 67347  43.0021  44.7355 0002053 255.4107 104.6526 15.50576269  4027
STARLINK-36467          
1 67348U 26003Q   26036.39079171  .00157071  00000+0  26252-2 0  9992
2 67348  42.9984  50.3895 0001432 275.1798  84.8899 15.50628064  3876
STARLINK-36457          
1 67349U 26003R   26037.42075469  .00116727  00000+0  19654-2 0  9995
2 67349  43.0017  44.3574 0001849 276.2913  83.7737 15.50587282  4030
STARLINK-36475          
1 67350U 26003S   26037.03384482  .00184552  00000+0  30486-2 0  9999
2 67350  42.9984  46.6124 0002073 246.9301 113.1340 15.50848612  3971
STARLINK-36478          
1 67351U 26003T   26036.38942310  .00102568  00000+0  17302-2 0  9996
2 67351  42.9985  50.3767 0001481 269.8710  90.1981 15.50597515  3875
STARLINK-36479          
1 67352U 26003U   26036.38907703  .00102259  00000+0  17241-2 0  9993
2 67352  42.9942  50.3714 0000998 301.5959  58.4803 15.50613644  3874
STARLINK-36474          
1 67353U 26003V   26037.50002314 -.01998890  00000+0 -46483-1 0  9999
2 67353  43.0005  43.9065 0001336 283.3676 154.9393 15.44961395  5661
STARLINK-36448          
1 67354U 26003W   26036.45211978  .00117796  00000+0  19787-2 0  9994
2 67354  42.9981  49.9884 0001198 252.8641 107.2088 15.50649438  3889
STARLINK-36477          
1 67355U 26003X   26037.50002314 -.02005240  00000+0 -44976-1 0  9995
2 67355  43.0001  43.8909 0001301 286.9710 157.5028 15.46015251  5651
STARLINK-36429          
1 67356U 26003Y   26037.50002314 -.02013255  00000+0 -44154-1 0  9999
2 67356  43.0001  43.8807 0001245 279.1811 169.4108 15.46673901  5655
STARLINK-36456          
1 67357U 26003Z   26037.41801182  .00124812  00000+0  20939-2 0  9994
2 67357  43.0013  44.3324 0002485 262.8969  97.1608 15.50654093  4038
