CCSDS_OMM_VERS = 2.0
CREATION_DATE  = 
ORIGINATOR     = 

OBJECT_NAME    = STARLINK-36472
OBJECT_ID      = 2026-003N
CENTER_NAME    = EARTH
REF_FRAME      = TEME
TIME_SYSTEM    = UTC
MEAN_ELEMENT_THEORY = SGP/SGP4

EPOCH          = 2026-02-05T10:55:58.943712
MEAN_MOTION    = 15.50624240
ECCENTRICITY   = .00021933
INCLINATION    = 43.0004
RA_OF_ASC_NODE = 50.0153
ARG_OF_PERICENTER = 254.1486
MEAN_ANOMALY   = 105.9132

EPHEMERIS_TYPE = 0
CLASSIFICATION_TYPE = U
NORAD_CAT_ID   = 67346
ELEMENT_SET_NO = 999
REV_AT_EPOCH   = 387
BSTAR          = .14983496E-2
MEAN_MOTION_DOT = .88707E-3
MEAN_MOTION_DDOT = 0

CCSDS_OMM_VERS = 2.0
CREATION_DATE  = 
ORIGINATOR     = 

OBJECT_NAME    = STARLINK-36420
OBJECT_ID      = 2026-003P
CENTER_NAME    = EARTH
REF_FRAME      = TEME
TIME_SYSTEM    = UTC
MEAN_ELEMENT_THEORY = SGP/SGP4

EPOCH          = 2026-02-06T08:33:37.169280
MEAN_MOTION    = 15.50576269
ECCENTRICITY   = .0002053
INCLINATION    = 43.0021
RA_OF_ASC_NODE = 44.7355
ARG_OF_PERICENTER = 255.4107
MEAN_ANOMALY   = 104.6526

EPHEMERIS_TYPE = 0
CLASSIFICATION_TYPE = U
NORAD_CAT_ID   = 67347
ELEMENT_SET_NO = 999
REV_AT_EPOCH   = 402
BSTAR          = .15039E-2
MEAN_MOTION_DOT = .88887E-3
MEAN_MOTION_DDOT = 0

CCSDS_OMM_VERS = 2.0
CREATION_DATE  = 
ORIGINATOR     = 

OBJECT_NAME    = STARLINK-36467
OBJECT_ID      = 2026-003Q
CENTER_NAME    = EARTH
REF_FRAME      = TEME
TIME_SYSTEM    = UTC
MEAN_ELEMENT_THEORY = SGP/SGP4

EPOCH          = 2026-02-05T09:22:44.403744
MEAN_MOTION    = 15.50628064
ECCENTRICITY   = .00014327
INCLINATION    = 42.9984
RA_OF_ASC_NODE = 50.3895
ARG_OF_PERICENTER = 275.1798
MEAN_ANOMALY   = 84.8899

EPHEMERIS_TYPE = 0
CLASSIFICATION_TYPE = U
NORAD_CAT_ID   = 67348
ELEMENT_SET_NO = 999
REV_AT_EPOCH   = 387
BSTAR          = .26252252E-2
MEAN_MOTION_DOT = .157071E-2
MEAN_MOTION_DDOT = 0

CCSDS_OMM_VERS = 2.0
CREATION_DATE  = 
ORIGINATOR     = 

OBJECT_NAME    = STARLINK-36457
OBJECT_ID      = 2026-003R
CENTER_NAME    = EARTH
REF_FRAME      = TEME
TIME_SYSTEM    = UTC
MEAN_ELEMENT_THEORY = SGP/SGP4

EPOCH          = 2026-02-06T10:05:53.205216
MEAN_MOTION    = 15.50587282
ECCENTRICITY   = .0001849
INCLINATION    = 43.0017
RA_OF_ASC_NODE = 44.3574
ARG_OF_PERICENTER = 276.2913
MEAN_ANOMALY   = 83.7737

EPHEMERIS_TYPE = 0
CLASSIFICATION_TYPE = U
NORAD_CAT_ID   = 67349
ELEMENT_SET_NO = 999
REV_AT_EPOCH   = 403
BSTAR          = .19654E-2
MEAN_MOTION_DOT = .116727E-2
MEAN_MOTION_DDOT = 0

CCSDS_OMM_VERS = 2.0
CREATION_DATE  = 
ORIGINATOR     = 

OBJECT_NAME    = STARLINK-36475
OBJECT_ID      = 2026-003S
CENTER_NAME    = EARTH
REF_FRAME      = TEME
TIME_SYSTEM    = UTC
MEAN_ELEMENT_THEORY = SGP/SGP4

EPOCH          = 2026-02-06T00:48:44.192448
MEAN_MOTION    = 15.50848612
ECCENTRICITY   = .00020735
INCLINATION    = 42.9984
RA_OF_ASC_NODE = 46.6124
ARG_OF_PERICENTER = 246.9301
MEAN_ANOMALY   = 113.1340

EPHEMERIS_TYPE = 0
CLASSIFICATION_TYPE = U
NORAD_CAT_ID   = 67350
ELEMENT_SET_NO = 999
REV_AT_EPOCH   = 397
BSTAR          = .30485944E-2
MEAN_MOTION_DOT = .184552E-2
MEAN_MOTION_DDOT = 0

CCSDS_OMM_VERS = 2.0
CREATION_DATE  = 
ORIGINATOR     = 

OBJECT_NAME    = STARLINK-36478
OBJECT_ID      = 2026-003T
CENTER_NAME    = EARTH
REF_FRAME      = TEME
TIME_SYSTEM    = UTC
MEAN_ELEMENT_THEORY = SGP/SGP4

EPOCH          = 2026-02-05T09:20:46.155840
MEAN_MOTION    = 15.50597515
ECCENTRICITY   = .00014816
INCLINATION    = 42.9985
RA_OF_ASC_NODE = 50.3767
ARG_OF_PERICENTER = 269.8710
MEAN_ANOMALY   = 90.1981

EPHEMERIS_TYPE = 0
CLASSIFICATION_TYPE = U
NORAD_CAT_ID   = 67351
ELEMENT_SET_NO = 999
REV_AT_EPOCH   = 387
BSTAR          = .17301846E-2
MEAN_MOTION_DOT = .102568E-2
MEAN_MOTION_DDOT = 0

CCSDS_OMM_VERS = 2.0
CREATION_DATE  = 
ORIGINATOR     = 

OBJECT_NAME    = STARLINK-36479
OBJECT_ID      = 2026-003U
CENTER_NAME    = EARTH
REF_FRAME      = TEME
TIME_SYSTEM    = UTC
MEAN_ELEMENT_THEORY = SGP/SGP4

EPOCH          = 2026-02-05T09:20:16.255392
MEAN_MOTION    = 15.50613644
ECCENTRICITY   = .00009984
INCLINATION    = 42.9942
RA_OF_ASC_NODE = 50.3714
ARG_OF_PERICENTER = 301.5959
MEAN_ANOMALY   = 58.4803

EPHEMERIS_TYPE = 0
CLASSIFICATION_TYPE = U
NORAD_CAT_ID   = 67352
ELEMENT_SET_NO = 999
REV_AT_EPOCH   = 387
BSTAR          = .17240803E-2
MEAN_MOTION_DOT = .102259E-2
MEAN_MOTION_DDOT = 0

CCSDS_OMM_VERS = 2.0
CREATION_DATE  = 
ORIGINATOR     = 

OBJECT_NAME    = STARLINK-36474
OBJECT_ID      = 2026-003V
CENTER_NAME    = EARTH
REF_FRAME      = TEME
TIME_SYSTEM    = UTC
MEAN_ELEMENT_THEORY = SGP/SGP4

EPOCH          = 2026-02-06T12:00:01.999296
MEAN_MOTION    = 15.44961395
ECCENTRICITY   = .0001336
INCLINATION    = 43.0005
RA_OF_ASC_NODE = 43.9065
ARG_OF_PERICENTER = 283.3676
MEAN_ANOMALY   = 154.9393

EPHEMERIS_TYPE = 0
CLASSIFICATION_TYPE = U
NORAD_CAT_ID   = 67353
ELEMENT_SET_NO = 999
REV_AT_EPOCH   = 566
BSTAR          = -.46483E-1
MEAN_MOTION_DOT = -.199889E-1
MEAN_MOTION_DDOT = 0

CCSDS_OMM_VERS = 2.0
CREATION_DATE  = 
ORIGINATOR     = 

OBJECT_NAME    = STARLINK-36448
OBJECT_ID      = 2026-003W
CENTER_NAME    = EARTH
REF_FRAME      = TEME
TIME_SYSTEM    = UTC
MEAN_ELEMENT_THEORY = SGP/SGP4

EPOCH          = 2026-02-05T10:51:03.148992
MEAN_MOTION    = 15.50649438
ECCENTRICITY   = .00011985
INCLINATION    = 42.9981
RA_OF_ASC_NODE = 49.9884
ARG_OF_PERICENTER = 252.8641
MEAN_ANOMALY   = 107.2088

EPHEMERIS_TYPE = 0
CLASSIFICATION_TYPE = U
NORAD_CAT_ID   = 67354
ELEMENT_SET_NO = 999
REV_AT_EPOCH   = 388
BSTAR          = .19786854E-2
MEAN_MOTION_DOT = .117796E-2
MEAN_MOTION_DDOT = 0

CCSDS_OMM_VERS = 2.0
CREATION_DATE  = 
ORIGINATOR     = 

OBJECT_NAME    = STARLINK-36477
OBJECT_ID      = 2026-003X
CENTER_NAME    = EARTH
REF_FRAME      = TEME
TIME_SYSTEM    = UTC
MEAN_ELEMENT_THEORY = SGP/SGP4

EPOCH          = 2026-02-06T12:00:01.999296
MEAN_MOTION    = 15.46015251
ECCENTRICITY   = .0001301
INCLINATION    = 43.0001
RA_OF_ASC_NODE = 43.8909
ARG_OF_PERICENTER = 286.9710
MEAN_ANOMALY   = 157.5028

EPHEMERIS_TYPE = 0
CLASSIFICATION_TYPE = U
NORAD_CAT_ID   = 67355
ELEMENT_SET_NO = 999
REV_AT_EPOCH   = 565
BSTAR          = -.44976E-1
MEAN_MOTION_DOT = -.200524E-1
MEAN_MOTION_DDOT = 0

CCSDS_OMM_VERS = 2.0
CREATION_DATE  = 
ORIGINATOR     = 

OBJECT_NAME    = STARLINK-36429
OBJECT_ID      = 2026-003Y
CENTER_NAME    = EARTH
REF_FRAME      = TEME
TIME_SYSTEM    = UTC
MEAN_ELEMENT_THEORY = SGP/SGP4

EPOCH          = 2026-02-06T12:00:01.999296
MEAN_MOTION    = 15.46673901
ECCENTRICITY   = .0001245
INCLINATION    = 43.0001
RA_OF_ASC_NODE = 43.8807
ARG_OF_PERICENTER = 279.1811
MEAN_ANOMALY   = 169.4108

EPHEMERIS_TYPE = 0
CLASSIFICATION_TYPE = U
NORAD_CAT_ID   = 67356
ELEMENT_SET_NO = 999
REV_AT_EPOCH   = 565
BSTAR          = -.44154E-1
MEAN_MOTION_DOT = -.2013255E-1
MEAN_MOTION_DDOT = 0

CCSDS_OMM_VERS = 2.0
CREATION_DATE  = 
ORIGINATOR     = 

OBJECT_NAME    = STARLINK-36456
OBJECT_ID      = 2026-003Z
CENTER_NAME    = EARTH
REF_FRAME      = TEME
TIME_SYSTEM    = UTC
MEAN_ELEMENT_THEORY = SGP/SGP4

EPOCH          = 2026-02-06T10:01:56.221248
MEAN_MOTION    = 15.50654093
ECCENTRICITY   = .0002485
INCLINATION    = 43.0013
RA_OF_ASC_NODE = 44.3324
ARG_OF_PERICENTER = 262.8969
MEAN_ANOMALY   = 97.1608

EPHEMERIS_TYPE = 0
CLASSIFICATION_TYPE = U
NORAD_CAT_ID   = 67357
ELEMENT_SET_NO = 999
REV_AT_EPOCH   = 403
BSTAR          = .20939E-2
MEAN_MOTION_DOT = .124812E-2
MEAN_MOTION_DDOT = 0

